COSMOS 2251 DEB         
1 40810U 93036BWP 17344.16967163  .00000372  00000-0  11169-3 0  9995
2 40810  74.0383 156.7569 0023140 309.6270  50.2845 14.45977678193236
